0 COSMOS 2251 DEB
1 37087U 93036BFH 24019.38165767  .00059056  00000-0  51105-2 0  9994
2 37087  74.0090  45.1211 0113333 318.2618  40.9957 14.91977561556970
0 COSMOS 2251 DEB
1 37088U 93036BFJ 24020.46674865  .00057600  00000-0  48638-2 0  9990
2 37088  74.0077  68.9713 0023213 349.4658  10.6038 14.97601639732092
0 COSMOS 2251 DEB
1 37089U 93036BFK 24017.62492464  .00014900  00000-0  44717-2 0  9998
2 37089  74.0496 357.0397 0186695 268.8928  89.0830 14.33119717560827
0 COSMOS 2251 DEB
1 37093U 93036BFP 24015.57056087  .00032999  00000-0  36327-2 0  9998
2 37093  74.0128  96.2313 0111067 159.1881 201.3874 14.82966003609345
0 COSMOS 2251 DEB
1 37094U 93036BFQ 24005.29020471  .00002455  00000-0  89367-3 0  9992
2 37094  74.1148 331.5110 0091077 126.3742 234.5856 14.31377584746545
0 COSMOS 2251 DEB
1 37095U 93036BFR 24016.23548453  .00002609  00000-0  15536-2 0  9991
2 37095  73.8419 331.1792 0209526 158.3056 202.7118 13.97475954528848
0 COSMOS 2251 DEB
1 37105U 93036BGB 24009.70733940  .00025659  00000-0  10229-1 0  9997
2 37105  73.8854 135.9186 0343051 222.0353 135.3997 14.00974860739206
0 COSMOS 2251 DEB
1 37120U 93036BGS 24010.58435041  .00021458  00000-0  47427-2 0  9997
2 37120  74.0057 108.6794 0044396 333.5290  26.3605 14.56588159558523
0 COSMOS 2251 DEB
1 37132U 93036BHE 24016.69157747  .00010266  00000-0  19624-2 0  9995
2 37132  74.0049 147.3774 0051139 118.1548 242.4799 14.63135637521848
0 COSMOS 2251 DEB
1 37269U 93036BHH 24013.18301442  .00005085  00000-0  22668-2 0  9995
2 37269  74.1671 200.1806 0118507 269.9957  88.7608 14.19339524557400
0 COSMOS 2251 DEB
1 37278U 93036BHS 24007.79944536  .00003520  00000-0  13356-2 0  9998
2 37278  73.7858 173.0063 0323918 114.8658 311.9519 14.06287161538861
0 COSMOS 2251 DEB
1 37280U 93036BHU 24015.22155539  .00004923  00000-0  24373-2 0  9994
2 37280  74.0338 216.9259 0148212 147.1603 213.8856 14.11956970474518
0 COSMOS 2251 DEB
1 37282U 93036BHW 24016.57664066  .00053284  00000-0  55740-2 0  9991
2 37282  73.8816  72.0855 0056201 331.9304  27.8847 14.88182932771288
0 COSMOS 2251 DEB
1 37284U 93036BHY 24005.57840457  .00002702  00000-0  14309-2 0  9996
2 37284  74.0239 321.6164 0184890 272.7432 205.4851 14.05823997492122
0 COSMOS 2251 DEB
1 37292U 93036BJG 24014.11694978  .00003354  00000-0  19966-2 0  9998
2 37292  74.1283 172.1666 0230575 352.3971   7.3683 13.95347033500753
0 COSMOS 2251 DEB
1 37294U 93036BJJ 24015.11799157  .00048727  00000-0  58494-2 0  9998
2 37294  74.0575 174.4428 0025909  15.2704 344.9250 14.83509914745028
0 COSMOS 2251 DEB
1 37295U 93036BJK 24020.39677692  .00005808  00000-0  12538-2 0  9996
2 37295  74.0085 168.8209 0051167 158.4524 201.8810 14.57753056721884
0 COSMOS 2251 DEB
1 37297U 93036BJM 23360.73238161  .00057396  00000-0  58107-2 0  9997
2 37297  74.0106 142.7368 0013754  94.0437 266.2317 14.90576694541655
0 COSMOS 2251 DEB
1 37305U 93036BJV 24017.00291849  .00003816  00000-0  14250-2 0  9998
2 37305  73.8704 136.4657 0052656 236.6552 122.9551 14.31458845568944
0 COSMOS 2251 DEB
1 37306U 93036BJW 24007.82936635  .00034880  00000-0  31884-2 0  9994
2 37306  74.0673 190.9099 0046787  25.5675  35.7693 14.94010266779567
0 COSMOS 2251 DEB
1 37316U 93036BKG 24016.77960495  .00013272  00000-0  26688-2 0  9998
2 37316  74.0349 303.9779 0063981 200.2239 159.6392 14.60329995759174
0 COSMOS 2251 DEB
1 37320U 93036BKL 24004.77742020  .00003878  00000-0  71181-3 0  9992
2 37320  74.0482 154.0931 0058135  65.9852 294.7386 14.64967264760496
0 COSMOS 2251 DEB
1 37326U 93036BKS 24017.90562468  .00003993  00000-0  90824-3 0  9996
2 37326  74.0263 218.3332 0063777 161.4203 198.9310 14.55015482755467
