OBJECT_NAME,OBJECT_ID,EPOCH,MEAN_MOTION,ECCENTRICITY,INCLINATION,RA_OF_ASC_NODE,ARG_OF_PERICENTER,MEAN_ANOMALY,EPHEMERIS_TYPE,CLASSIFICATION_TYPE,NORAD_CAT_ID,ELEMENT_SET_NO,REV_AT_EPOCH,BSTAR,MEAN_MOTION_DOT,MEAN_MOTION_DDOT
COSMOS 2251 DEB,1993-036BFH,2024-01-19T09:09:35.222688,14.91977561,.0113333,74.0090,45.1211,318.2618,40.9957,0,U,37087,999,55697,.51105E-2,.59056E-3,0
COSMOS 2251 DEB,1993-036BFJ,2024-01-20T11:12:07.083360,14.97601639,.0023213,74.0077,68.9713,349.4658,10.6038,0,U,37088,999,73209,.48638E-2,.576E-3,0
COSMOS 2251 DEB,1993-036BFK,2024-01-17T14:59:53.488896,14.33119717,.0186695,74.0496,357.0397,268.8928,89.0830,0,U,37089,999,56082,.44717E-2,.149E-3,0
COSMOS 2251 DEB,1993-036BFP,2024-01-15T13:41:36.459168,14.82966003,.0111067,74.0128,96.2313,159.1881,201.3874,0,U,37093,999,60934,.36327E-2,.32999E-3,0
COSMOS 2251 DEB,1993-036BFQ,2024-01-05T06:57:53.686944,14.31377584,.0091077,74.1148,331.5110,126.3742,234.5856,0,U,37094,999,74654,.89367E-3,.2455E-4,0
COSMOS 2251 DEB,1993-036BFR,2024-01-16T05:39:05.863392,13.97475954,.0209526,73.8419,331.1792,158.3056,202.7118,0,U,37095,999,52884,.15536E-2,.2609E-4,0
COSMOS 2251 DEB,1993-036BGB,2024-01-09T16:58:34.124160,14.00974860,.0343051,73.8854,135.9186,222.0353,135.3997,0,U,37105,999,73920,.10229E-1,.25659E-3,0
COSMOS 2251 DEB,1993-036BGS,2024-01-10T14:01:27.875424,14.56588159,.0044396,74.0057,108.6794,333.5290,26.3605,0,U,37120,999,55852,.47427E-2,.21458E-3,0
COSMOS 2251 DEB,1993-036BHE,2024-01-16T16:35:52.293408,14.63135637,.0051139,74.0049,147.3774,118.1548,242.4799,0,U,37132,999,52184,.19624E-2,.10266E-3,0
COSMOS 2251 DEB,1993-036BHH,2024-01-13T04:23:32.445888,14.19339524,.0118507,74.1671,200.1806,269.9957,88.7608,0,U,37269,999,55740,.22668E-2,.5085E-4,0
COSMOS 2251 DEB,1993-036BHS,2024-01-07T19:11:12.079104,14.06287161,.0323918,73.7858,173.0063,114.8658,311.9519,0,U,37278,999,53886,.13356E-2,.352E-4,0
COSMOS 2251 DEB,1993-036BHU,2024-01-15T05:19:02.385696,14.11956970,.0148212,74.0338,216.9259,147.1603,213.8856,0,U,37280,999,47451,.24373E-2,.4923E-4,0
COSMOS 2251 DEB,1993-036BHW,2024-01-16T13:50:21.753024,14.88182932,.0056201,73.8816,72.0855,331.9304,27.8847,0,U,37282,999,77128,.5574E-2,.53284E-3,0
COSMOS 2251 DEB,1993-036BHY,2024-01-05T13:52:54.154848,14.05823997,.018489,74.0239,321.6164,272.7432,205.4851,0,U,37284,999,49212,.14309E-2,.2702E-4,0
COSMOS 2251 DEB,1993-036BJG,2024-01-14T02:48:24.460992,13.95347033,.0230575,74.1283,172.1666,352.3971,7.3683,0,U,37292,999,50075,.19966E-2,.3354E-4,0
COSMOS 2251 DEB,1993-036BJJ,2024-01-15T02:49:54.471648,14.83509914,.0025909,74.0575,174.4428,15.2704,344.9250,0,U,37294,999,74502,.58494E-2,.48727E-3,0
COSMOS 2251 DEB,1993-036BJK,2024-01-20T09:31:21.525888,14.57753056,.0051167,74.0085,168.8209,158.4524,201.8810,0,U,37295,999,72188,.12538E-2,.5808E-4,0
COSMOS 2251 DEB,1993-036BJM,2023-12-26T17:34:37.771104,14.90576694,.0013754,74.0106,142.7368,94.0437,266.2317,0,U,37297,999,54165,.58107E-2,.57396E-3,0
COSMOS 2251 DEB,1993-036BJV,2024-01-17T00:04:12.157536,14.31458845,.0052656,73.8704,136.4657,236.6552,122.9551,0,U,37305,999,56894,.1425E-2,.3816E-4,0
COSMOS 2251 DEB,1993-036BJW,2024-01-07T19:54:17.252640,14.94010266,.0046787,74.0673,190.9099,25.5675,35.7693,0,U,37306,999,77956,.31884E-2,.3488E-3,0
COSMOS 2251 DEB,1993-036BKG,2024-01-16T18:42:37.867680,14.60329995,.0063981,74.0349,303.9779,200.2239,159.6392,0,U,37316,999,75917,.26688E-2,.13272E-3,0
COSMOS 2251 DEB,1993-036BKL,2024-01-04T18:39:29.105280,14.64967264,.0058135,74.0482,154.0931,65.9852,294.7386,0,U,37320,999,76049,.71181E-3,.3878E-4,0
COSMOS 2251 DEB,1993-036BKS,2024-01-17T21:44:05.972352,14.55015482,.0063777,74.0263,218.3332,161.4203,198.9310,0,U,37326,999,75546,.90824E-3,.3993E-4,0
